GLOBALSTAR M035         
1 25851U 99037A   25242.05251279 -.00000084  00000+0 -78534-3 0  9998
2 25851  51.9919 250.2413 0013430 101.0813 292.4565 11.04539336104428
GLOBALSTAR M032         
1 25852U 99037B   25242.20258324 -.00000071  00000+0 -14531-3 0  9997
2 25852  51.9954  69.9948 0011712 292.9252  67.0311 11.19062802143078
GLOBALSTAR M051         
1 25853U 99037C   25242.26541150 -.00000046  00000+0  63350-3 0  9990
2 25853  51.9762 222.1872 0000716 353.7176   6.3626 11.42205463140854
GLOBALSTAR M030         
1 25854U 99037D   25242.07090003 -.00000080  00000+0 -11407-3 0  9991
2 25854  51.9908  24.0629 0003372 167.5096 192.5805 11.55113620158582
GLOBALSTAR M048         
1 25872U 99041A   25242.06786602 -.00000051  00000+0  52370-3 0  9993
2 25872  51.9359 160.5543 0013559 315.3874  56.8803 11.33858679133363
GLOBALSTAR M026         
1 25873U 99041B   25242.14106020 -.00000071  00000+0 -27019-3 0  9998
2 25873  52.0052   7.2206 0001947  53.4783 119.1426 11.06849706156670
GLOBALSTAR M043         
1 25874U 99041C   25242.13902391 -.00000036  00000+0  94851-3 0  9991
2 25874  51.9383 270.9799 0013435  78.6711 315.2482 11.25696098131205
GLOBALSTAR M028         
1 25875U 99041D   25242.00273386 -.00000055  00000+0  29145-3 0  9998
2 25875  51.9654 332.9613 0063098 231.2322 128.2891 12.50586538199415
